STARLINK-35761          
1 66961U 25288C   26001.91668981 -.02050352  00000+0 -48754-1 0  9997
2 66961  43.0006  45.8567 0001515 268.2612 109.9882 15.44403472  5070
STARLINK-35874          
1 66962U 25288D   26001.58829470  .00160600  00000+0  26833-2 0  9992
2 66962  43.0009  47.7345 0001415 266.1222  93.9477 15.50623848  4969
STARLINK-36133          
1 66963U 25288E   26001.58795160  .00158856  00000+0  26546-2 0  9992
2 66963  43.0010  47.7316 0001298 264.7844  95.2869 15.50625534  4967
STARLINK-36104          
1 66964U 25288F   26001.58764647 -.00040327  00000+0 -69045-3 0  9996
2 66964  43.0010  47.7286 0001740 278.3945  81.6718 15.50360773  4962
STARLINK-36067          
1 66965U 25288G   26001.91668981  .00078391  00000+0  18677-2 0  9992
2 66965  43.0010  45.9330 0001386 265.4409  80.9598 15.40651169  5073
STARLINK-36139          
1 66966U 25288H   26001.58692240  .00072177  00000+0  12246-2 0  9993
2 66966  43.0009  47.7238 0001148 269.5548  90.5180 15.50583725  4968
STARLINK-36136          
1 66967U 25288J   26001.58657993  .00163353  00000+0  27280-2 0  9991
2 66967  43.0008  47.7205 0001259 267.3490  92.7226 15.50625397  4964
STARLINK-36152          
1 66968U 25288K   26001.58623647  .00157942  00000+0  26400-2 0  9991
2 66968  43.0010  47.7172 0001287 263.8959  96.1755 15.50622028  4966
STARLINK-36149          
1 66969U 25288L   26001.91668981 -.00084074  00000+0 -20259-2 0  9992
2 66969  43.0010  45.9906 0001526 255.2813  66.2575 15.40725282  5078
STARLINK-35703          
1 66970U 25288M   26001.58315098  .00146560  00000+0  24548-2 0  9997
2 66970  43.0010  47.6918 0001228 267.0980  92.9740 15.50610037  4966
STARLINK-35678          
1 66971U 25288N   26001.58589221  .00124603  00000+0  20932-2 0  9996
2 66971  43.0010  47.7151 0001198 272.8098  87.2625 15.50618113  4969
STARLINK-34846          
1 66972U 25288P   26001.58555127  .00158454  00000+0  26484-2 0  9994
2 66972  43.0007  47.7126 0001208 267.0535  93.0187 15.50622323  4968
